TIANQI-15               
1 49027U 21065B   26068.81163741  .00006722  00000+0  41179-3 0  9990
2 49027  34.9979 108.2420 0007067 250.7766 109.2180 15.09508085254244
STARLINK-4261           
1 52868U 22062AQ  26068.26159278 -.00000918  00000+0 -39586-4 0  9997
2 52868  53.2186  26.0712 0001356  90.3405 269.7743 15.08834921205860
